{"type": "FeatureCollection", "features": [{"type": "Feature", "properties": {"norad_id": 22675, "name": "COSMOS 2251", "group": "cosmos-2251-debris", "lat": -70.10712127562844, "lon": -121.8703085625214, "alt_km": 786.948023956008, "timestamp": "2025-12-26T16:33:55.963104+00:00", "meta": {"OBJECT_NAME": "COSMOS 2251", "OBJECT_ID": "1993-036A", "EPOCH": "2025-12-26T05:12:03.962592", "MEAN_MOTION": 14.33208899, "ECCENTRICITY": 0.00245061, "INCLINATION": 74.0401, "RA_OF_ASC_NODE": 291.2595, "ARG_OF_PERICENTER": 9.8781, "MEAN_ANOMALY": 350.2847, "EPHEMERIS_TYPE": 0, "CLASSIFICATION_TYPE": "U", "NORAD_CAT_ID": 22675, "ELEMENT_SET_NO": 999, "REV_AT_EPOCH": 69966, "BSTAR": 6.4144787e-05, "MEAN_MOTION_DOT": 1.51e-06, "MEAN_MOTION_DDOT": 0}, "tle": {"line1": "1 22675U 93036A   25360.21671253  .00000151  00000+0  64145-4 0  9996", "line2": "2 22675  74.0401 291.2595 0024506   9.8781 350.2847 14.33208899699665"}}, "geometry": {"type": "Point", "coordinates": [-121.8703085625214, -70.10712127562844]}}, {"type": "Feature", "properties": {"norad_id": 33757, "name": "COSMOS 2251 DEB", "group": "cosmos-2251-debris", "lat": -64.81766660106656, "lon": -99.35554615804182, "alt_km": 779.3880598734386, "timestamp": "2025-12-26T16:33:55.963134+00:00", "meta": {"OBJECT_NAME": "COSMOS 2251 DEB", "OBJECT_ID": "1993-036E", "EPOCH": "2025-12-26T05:39:44.614656", "MEAN_MOTION": 14.3258447, "ECCENTRICITY": 0.00156741, "INCLINATION": 74.0376, "RA_OF_ASC_NODE": 298.9715, "ARG_OF_PERICENTER": 310.2472, "MEAN_ANOMALY": 157.5711, "EPHEMERIS_TYPE": 0, "CLASSIFICATION_TYPE": "U", "NORAD_CAT_ID": 33757, "ELEMENT_SET_NO": 999, "REV_AT_EPOCH": 88189, "BSTAR": 5.3313598e-05, "MEAN_MOTION_DOT": 1.19e-06, "MEAN_MOTION_DDOT": 0}, "tle": {"line1": "1 33757U 93036E   25360.23593304  .00000119  00000+0  53314-4 0  9991", "line2": "2 33757  74.0376 298.9715 0015674 310.2472 157.5711 14.32584470881896"}}, "geometry": {"type": "Point", "coordinates": [-99.35554615804182, -64.81766660106656]}}, {"type": "Feature", "properties": {"norad_id": 33758, "name": "COSMOS 2251 DEB", "group": "cosmos-2251-debris", "lat": 63.73676568650045, "lon": -26.731767980757613, "alt_km": 723.3187782395962, "timestamp": "2025-12-26T16:33:55.963146+00:00", "meta": {"OBJECT_NAME": "COSMOS 2251 DEB", "OBJECT_ID": "1993-036F", "EPOCH": "2025-12-26T06:57:51.146784", "MEAN_MOTION": 14.51672025, "ECCENTRICITY": 0.00170496, "INCLINATION": 74.0268, "RA_OF_ASC_NODE": 189.5058, "ARG_OF_PERICENTER": 255.2915, "MEAN_ANOMALY": 286.0584, "EPHEMERIS_TYPE": 0, "CLASSIFICATION_TYPE": "U", "NORAD_CAT_ID": 33758, "ELEMENT_SET_NO": 999, "REV_AT_EPOCH": 88501, "BSTAR": 0.00078630758, "MEAN_MOTION_DOT": 3.134e-05, "MEAN_MOTION_DDOT": 0}, "tle": {"line1": "1 33758U 93036F   25360.29017531  .00003134  00000+0  78631-3 0  9999", "line2": "2 33758  74.0268 189.5058 0017049 255.2915 286.0584 14.51672025885019"}}, "geometry": {"type": "Point", "coordinates": [-26.731767980757613, 63.73676568650045]}}, {"type": "Feature", "properties": {"norad_id": 33760, "name": "COSMOS 2251 DEB", "group": "cosmos-2251-debris", "lat": -26.643212516804255, "lon": -112.40504769215897, "alt_km": 764.269708676482, "timestamp": "2025-12-26T16:33:55.963157+00:00", "meta": {"OBJECT_NAME": "COSMOS 2251 DEB", "OBJECT_ID": "1993-036H", "EPOCH": "2025-12-26T04:01:23.988864", "MEAN_MOTION": 14.3568128, "ECCENTRICITY": 0.00204802, "INCLINATION": 74.0318, "RA_OF_ASC_NODE": 256.813, "ARG_OF_PERICENTER": 352.0528, "MEAN_ANOMALY": 160.4164, "EPHEMERIS_TYPE": 0, "CLASSIFICATION_TYPE": "U", "NORAD_CAT_ID": 33760, "ELEMENT_SET_NO": 999, "REV_AT_EPOCH": 88317, "BSTAR": 0.00010125434, "MEAN_MOTION_DOT": 2.67e-06, "MEAN_MOTION_DDOT": 0}, "tle": {"line1": "1 33760U 93036H   25360.16763876  .00000267  00000+0  10125-3 0  9996", "line2": "2 33760  74.0318 256.8130 0020480 352.0528 160.4164 14.35681280883175"}}, "geometry": {"type": "Point", "coordinates": [-112.40504769215897, -26.643212516804255]}}, {"type": "Feature", "properties": {"norad_id": 33761, "name": "COSMOS 2251 DEB", "group": "cosmos-2251-debris", "lat": -61.87266710678691, "lon": 78.66013882629954, "alt_km": 747.9670927542747, "timestamp": "2025-12-26T16:33:55.963167+00:00", "meta": {"OBJECT_NAME": "COSMOS 2251 DEB", "OBJECT_ID": "1993-036J", "EPOCH": "2025-12-25T18:07:22.971936", "MEAN_MOTION": 14.42579332, "ECCENTRICITY": 0.00233359, "INCLINATION": 74.0347, "RA_OF_ASC_NODE": 228.0146, "ARG_OF_PERICENTER": 306.4885, "MEAN_ANOMALY": 125.9248, "EPHEMERIS_TYPE": 0, "CLASSIFICATION_TYPE": "U", "NORAD_CAT_ID": 33761, "ELEMENT_SET_NO": 999, "REV_AT_EPOCH": 88422, "BSTAR": 0.00036902596, "MEAN_MOTION_DOT": 1.202e-05, "MEAN_MOTION_DDOT": 0}, "tle": {"line1": "1 33761U 93036J   25359.75512699  .00001202  00000+0  36903-3 0  9997", "line2": "2 33761  74.0347 228.0146 0023335 306.4885 125.9248 14.42579332884225"}}, "geometry": {"type": "Point", "coordinates": [78.66013882629954, -61.87266710678691]}}, {"type": "Feature", "properties": {"norad_id": 33762, "name": "COSMOS 2251 DEB", "group": "cosmos-2251-debris", "lat": 10.115479401207391, "lon": 101.59636580412774, "alt_km": 791.7486142819835, "timestamp": "2025-12-26T16:33:55.963177+00:00", "meta": {"OBJECT_NAME": "COSMOS 2251 DEB", "OBJECT_ID": "1993-036K", "EPOCH": "2025-12-26T06:26:49.691616", "MEAN_MOTION": 14.33667965, "ECCENTRICITY": 0.00155421, "INCLINATION": 74.0422, "RA_OF_ASC_NODE": 285.2929, "ARG_OF_PERICENTER": 343.6512, "MEAN_ANOMALY": 170.6399, "EPHEMERIS_TYPE": 0, "CLASSIFICATION_TYPE": "U", "NORAD_CAT_ID": 33762, "ELEMENT_SET_NO": 999, "REV_AT_EPOCH": 88241, "BSTAR": 6.0132041e-05, "MEAN_MOTION_DOT": 1.41e-06, "MEAN_MOTION_DDOT": 0}, "tle": {"line1": "1 33762U 93036K   25360.26863069  .00000141  00000+0  60132-4 0  9999", "line2": "2 33762  74.0422 285.2929 0015542 343.6512 170.6399 14.33667965882418"}}, "geometry": {"type": "Point", "coordinates": [101.59636580412774, 10.115479401207391]}}, {"type": "Feature", "properties": {"norad_id": 33764, "name": "COSMOS 2251 DEB", "group": "cosmos-2251-debris", "lat": -59.241898908801176, "lon": 95.65389461887821, "alt_km": 752.8870296144378, "timestamp": "2025-12-26T16:33:55.963187+00:00", "meta": {"OBJECT_NAME": "COSMOS 2251 DEB", "OBJECT_ID": "1993-036M", "EPOCH": "2025-12-26T04:19:04.882368", "MEAN_MOTION": 14.39536483, "ECCENTRICITY": 0.00233272, "INCLINATION": 74.0329, "RA_OF_ASC_NODE": 247.8394, "ARG_OF_PERICENTER": 210.9538, "MEAN_ANOMALY": 268.658, "EPHEMERIS_TYPE": 0, "CLASSIFICATION_TYPE": "U", "NORAD_CAT_ID": 33764, "ELEMENT_SET_NO": 999, "REV_AT_EPOCH": 88350, "BSTAR": 0.00029051113, "MEAN_MOTION_DOT": 8.83e-06, "MEAN_MOTION_DDOT": 0}, "tle": {"line1": "1 33764U 93036M   25360.17991762  .00000883  00000+0  29051-3 0  9990", "line2": "2 33764  74.0329 247.8394 0023327 210.9538 268.6580 14.39536483883507"}}, "geometry": {"type": "Point", "coordinates": [95.65389461887821, -59.241898908801176]}}, {"type": "Feature", "properties": {"norad_id": 33765, "name": "COSMOS 2251 DEB", "group": "cosmos-2251-debris", "lat": 25.702717258439318, "lon": 152.17812970135375, "alt_km": 572.5110940581708, "timestamp": "2025-12-26T16:33:55.963196+00:00", "meta": {"OBJECT_NAME": "COSMOS 2251 DEB", "OBJECT_ID": "1993-036N", "EPOCH": "2025-12-26T02:40:18.277824", "MEAN_MOTION": 15.1070679, "ECCENTRICITY": 0.00647226, "INCLINATION": 74.0098, "RA_OF_ASC_NODE": 145.4423, "ARG_OF_PERICENTER": 235.5123, "MEAN_ANOMALY": 243.969, "EPHEMERIS_TYPE": 0, "CLASSIFICATION_TYPE": "U", "NORAD_CAT_ID": 33765, "ELEMENT_SET_NO": 999, "REV_AT_EPOCH": 89820, "BSTAR": 0.0015130412, "MEAN_MOTION_DOT": 0.00026411, "MEAN_MOTION_DDOT": 0}, "tle": {"line1": "1 33765U 93036N   25360.11132266  .00026411  00000+0  15130-2 0  9998", "line2": "2 33765  74.0098 145.4423 0064722 235.5123 243.9690 15.10706790898205"}}, "geometry": {"type": "Point", "coordinates": [152.17812970135375, 25.702717258439318]}}, {"type": "Feature", "properties": {"norad_id": 33766, "name": "COSMOS 2251 DEB", "group": "cosmos-2251-debris", "lat": 52.49204819187381, "lon": 131.31578517125627, "alt_km": 782.7102386692422, "timestamp": "2025-12-26T16:33:55.963206+00:00", "meta": {"OBJECT_NAME": "COSMOS 2251 DEB", "OBJECT_ID": "1993-036P", "EPOCH": "2025-12-25T18:33:25.189344", "MEAN_MOTION": 14.3497211, "ECCENTRICITY": 0.00648446, "INCLINATION": 74.1862, "RA_OF_ASC_NODE": 111.3113, "ARG_OF_PERICENTER": 311.1353, "MEAN_ANOMALY": 48.4214, "EPHEMERIS_TYPE": 0, "CLASSIFICATION_TYPE": "U", "NORAD_CAT_ID": 33766, "ELEMENT_SET_NO": 999, "REV_AT_EPOCH": 87932, "BSTAR": 0.00055753785, "MEAN_MOTION_DOT": 1.6e-05, "MEAN_MOTION_DDOT": 0}, "tle": {"line1": "1 33766U 93036P   25359.77320821  .00001600  00000+0  55754-3 0  9995", "line2": "2 33766  74.1862 111.3113 0064844 311.1353  48.4214 14.34972110879323"}}, "geometry": {"type": "Point", "coordinates": [131.31578517125627, 52.49204819187381]}}, {"type": "Feature", "properties": {"norad_id": 33768, "name": "COSMOS 2251 DEB", "group": "cosmos-2251-debris", "lat": 65.80780963717825, "lon": -22.130344337692033, "alt_km": 1147.2111372852823, "timestamp": "2025-12-26T16:33:55.963216+00:00", "meta": {"OBJECT_NAME": "COSMOS 2251 DEB", "OBJECT_ID": "1993-036R", "EPOCH": "2025-12-26T00:41:37.413600", "MEAN_MOTION": 13.58465773, "ECCENTRICITY": 0.03668844, "INCLINATION": 74.0665, "RA_OF_ASC_NODE": 198.4204, "ARG_OF_PERICENTER": 353.2639, "MEAN_ANOMALY": 118.3441, "EPHEMERIS_TYPE": 0, "CLASSIFICATION_TYPE": "U", "NORAD_CAT_ID": 33768, "ELEMENT_SET_NO": 999, "REV_AT_EPOCH": 83476, "BSTAR": 0.00032934725, "MEAN_MOTION_DOT": 3.5e-06, "MEAN_MOTION_DDOT": 0}, "tle": {"line1": "1 33768U 93036R   25360.02890525  .00000350  00000+0  32935-3 0  9997", "line2": "2 33768  74.0665 198.4204 0366884 353.2639 118.3441 13.58465773834760"}}, "geometry": {"type": "Point", "coordinates": [-22.130344337692033, 65.80780963717825]}}]}